[{"name":"(2015 HZ176)","neo_reference_id":"3719075","url":"http://ssd.jpl.nasa.gov/sbdb.cgi?sstr=3719075","api_link":"https://api.nasa.gov/neo/rest/v1/neo/3719075?api_key=CGuQueDNtud5hWODnVj9El7kwfizD8Ql2XqEz3s5","closest_approach":"2016-05-13","potentially_hazardous":false,"absolute_magnitude_h":23.7,"estimated_diameter":0.07826049975,"kilometers_per_second":10.8542924788,"miss_distance":63.8245162964,"orbital_data":{"orbit_id":"2","orbit_determination_date":"2015-06-04 15:19:36","orbit_uncertainty":"5","minimum_orbit_intersection":".0673162","jupiter_tisserand_invariant":"6.206","epoch_osculation":"2457600.5","eccentricity":".1824783317090115","semi_major_axis":".9684319717987534","inclination":"10.98287113538253","ascending_node_longitude":"35.93804375134954","orbital_period":"348.0984624948109","perihelion_distance":".7917141212112484","perihelion_argument":"323.0222293509406","aphelion_distance":"1.145149822386258","perihelion_time":"2457616.740382080763","mean_anomaly":"343.2043568731306","mean_motion":"1.034190146718521","equinox":"J2000"}},{"name":"(2016 JW28)","neo_reference_id":"3753291","url":"http://ssd.jpl.nasa.gov/sbdb.cgi?sstr=3753291","api_link":"https://api.nasa.gov/neo/rest/v1/neo/3753291?api_key=CGuQueDNtud5hWODnVj9El7kwfizD8Ql2XqEz3s5","closest_approach":"2016-05-14","potentially_hazardous":false,"absolute_magnitude_h":25.436,"estimated_diameter":0.03518378975,"kilometers_per_second":12.3995456593,"miss_distance":5.5567827225,"orbital_data":{"orbit_id":"4","orbit_determination_date":"2016-05-24 13:33:09","orbit_uncertainty":"8","minimum_orbit_intersection":".00415593","jupiter_tisserand_invariant":"3.531","epoch_osculation":"2457520.5","eccentricity":".5791105938262361","semi_major_axis":"2.081550800236833","inclination":".9191185679170221","ascending_node_longitude":"217.2519036356856","orbital_period":"1096.930086231717","perihelion_distance":".8761026802322037","perihelion_argument":"65.39176700414811","aphelion_distance":"3.286998920241462","perihelion_time":"2457558.993625585261","mean_anomaly":"347.3668291310166","mean_motion":".3281886462214812","equinox":"J2000"}},{"name":"371660 (2007 CN26)","neo_reference_id":"2371660","url":"http://ssd.jpl.nasa.gov/sbdb.cgi?sstr=2371660","api_link":"https://api.nasa.gov/neo/rest/v1/neo/2371660?api_key=CGuQueDNtud5hWODnVj9El7kwfizD8Ql2XqEz3s5","closest_approach":"2016-05-14","potentially_hazardous":false,"absolute_magnitude_h":21.1,"estimated_diameter":0.2591448705,"kilometers_per_second":9.8258298847,"miss_distance":68.4778671265,"orbital_data":{"orbit_id":"63","orbit_determination_date":"2016-05-24 21:43:41","orbit_uncertainty":"0","minimum_orbit_intersection":".00235122","jupiter_tisserand_invariant":"4.977","epoch_osculation":"2457600.5","eccentricity":".2692207794472155","semi_major_axis":"1.29275471488007","inclination":"7.583610624932453","ascending_node_longitude":"159.3116306240442","orbital_period":"536.8743093051961","perihelion_distance":".9447182829059947","perihelion_argument":"135.6629445798578","aphelion_distance":"1.640791146854145","perihelion_time":"2457571.314724525700","mean_anomaly":"19.57012840555836","mean_motion":".6705480105127388","equinox":"J2000"}},{"name":"(2015 KP57)","neo_reference_id":"3719864","url":"http://ssd.jpl.nasa.gov/sbdb.cgi?sstr=3719864","api_link":"https://api.nasa.gov/neo/rest/v1/neo/3719864?api_key=CGuQueDNtud5hWODnVj9El7kwfizD8Ql2XqEz3s5","closest_approach":"2016-05-14","potentially_hazardous":false,"absolute_magnitude_h":24.9,"estimated_diameter":0.04503421705,"kilometers_per_second":25.3236440222,"miss_distance":137.2232666016,"orbital_data":{"orbit_id":"4","orbit_determination_date":"2015-06-04 15:23:19","orbit_uncertainty":"8","minimum_orbit_intersection":".00656386","jupiter_tisserand_invariant":"6.158","epoch_osculation":"2457165.5","eccentricity":".4748461303286433","semi_major_axis":".9633829663603701","inclination":"1.804577892798518","ascending_node_longitude":"55.25026777957254","orbital_period":"345.3797507523679","perihelion_distance":".5059242927596188","perihelion_argument":"315.5608102697885","aphelion_distance":"1.420841639961121","perihelion_time":"2457236.280881213577","mean_anomaly":"286.2228976036372","mean_motion":"1.042330939251023","equinox":"J2000"}},

{"name":"(2014 GK45)","neo_reference_id":"3667138","url":"http://ssd.jpl.nasa.gov/sbdb.cgi?sstr=3667138","api_link":"https://api.nasa.gov/neo/rest/v1/neo/3667138?api_key=CGuQueDNtud5hWODnVj9El7kwfizD8Ql2XqEz3s5","closest_approach":"2016-05-11","potentially_hazardous":false,"absolute_magnitude_h":26.1,"estimated_diameter":0.025914487049999997,"kilometers_per_second":14.2558891623,"miss_distance":140.5446472168,"orbital_data":{"orbit_id":"12","orbit_determination_date":"2015-01-07 22:40:19","orbit_uncertainty":"6","minimum_orbit_intersection":".0587404","jupiter_tisserand_invariant":"4.257","epoch_osculation":"2457600.5","eccentricity":".3489419750917375","semi_major_axis":"1.617995696411073","inclination":"4.865473607158279","ascending_node_longitude":"29.11400966898011","orbital_period":"751.7344790718951","perihelion_distance":"1.053409082415462","perihelion_argument":"157.9275745034327","aphelion_distance":"2.182582310406684","perihelion_time":"2457496.597444383969","mean_anomaly":"49.75815405986419","mean_motion":".4788924946537805","equinox":"J2000"}},{"name":"(2016 EP86)","neo_reference_id":"3746494","url":"http://ssd.jpl.nasa.gov/sbdb.cgi?sstr=3746494","api_link":"https://api.nasa.gov/neo/rest/v1/neo/3746494?api_key=CGuQueDNtud5hWODnVj9El7kwfizD8Ql2XqEz3s5","closest_approach":"2016-05-11","potentially_hazardous":false,"absolute_magnitude_h":20.6,"estimated_diameter":0.3262440628,"kilometers_per_second":3.1288362187,"miss_distance":108.0046920776,"orbital_data":{"orbit_id":"33","orbit_determination_date":"2016-05-31 06:18:15","orbit_uncertainty":"5","minimum_orbit_intersection":".264131","jupiter_tisserand_invariant":"3.361","epoch_osculation":"2457600.5","eccentricity":".4743905433309109","semi_major_axis":"2.397202897183314","inclination":"4.836417843443536","ascending_node_longitude":"165.0817316084824","orbital_period":"1355.675094950924","perihelion_distance":"1.259992512314088","perihelion_argument":"62.77808254395887","aphelion_distance":"3.53441328205254","perihelion_time":"2457511.855304179670","mean_anomaly":"23.5396302655202","mean_motion":".2655503529870719","equinox":"J2000"}},{"name":"(2016 JL17)","neo_reference_id":"3753020","url":"http://ssd.jpl.nasa.gov/sbdb.cgi?sstr=3753020","api_link":"https://api.nasa.gov/neo/rest/v1/neo/3753020?api_key=CGuQueDNtud5hWODnVj9El7kwfizD8Ql2XqEz3s5","closest_approach":"2016-05-11","potentially_hazardous":false,"absolute_magnitude_h":24.636,"estimated_diameter":0.050856049,"kilometers_per_second":11.0729844638,"miss_distance":48.1037979126,"orbital_data":{"orbit_id":"3","orbit_determination_date":"2016-05-24 13:32:09","orbit_uncertainty":"8","minimum_orbit_intersection":".122998","jupiter_tisserand_invariant":"4.829","epoch_osculation":"2457515.5","eccentricity":".2233650208800206","semi_major_axis":"1.334844425943116","inclination":"19.54709024600537","ascending_node_longitude":"222.2168906719362","orbital_period":"563.3060365923501","perihelion_distance":"1.036686872870753","perihelion_argument":"62.61512185907954","aphelion_distance":"1.633001979015479","perihelion_time":"2457575.200967996310","mean_anomaly":"321.8460533306426","mean_motion":".6390842217452085","equinox":"J2000"}},{"name":"(2016 JL24)","neo_reference_id":"3753094","url":"http://ssd.jpl.nasa.gov/sbdb.cgi?sstr=3753094","api_link":"https://api.nasa.gov/neo/rest/v1/neo/3753094?api_key=CGuQueDNtud5hWODnVj9El7kwfizD8Ql2XqEz3s5","closest_approach":"2016-05-11","potentially_hazardous":false,"absolute_magnitude_h":22.549,"estimated_diameter":0.13296661625,"kilometers_per_second":15.3530417838,"miss_distance":110.0028533936,"orbital_data":{"orbit_id":"5","orbit_determination_date":"2016-05-27 05:46:48","orbit_uncertainty":"7","minimum_orbit_intersection":".277461","jupiter_tisserand_invariant":"3.878","epoch_osculation":"2457600.5","eccentricity":".318820279396501","semi_major_axis":"1.787198967944402","inclination":"29.55019818591376","ascending_node_longitude":"222.7411822747175","orbital_period":"872.6855487873785","perihelion_distance":"1.21740369364723","perihelion_argument":"44.21849268068471","aphelion_distance":"2.356994242241575","perihelion_time":"2457565.962965315872","mean_anomaly":"14.24720794742459","mean_motion":".4125197220238496","equinox":"J2000"}},{"name":"230111 (2001 BE10)","neo_reference_id":"2230111","url":"http://ssd.jpl.nasa.gov/sbdb.cgi?sstr=2230111","api_link":"https://api.nasa.gov/neo/rest/v1/neo/2230111?api_key=CGuQueDNtud5hWODnVj9El7kwfizD8Ql2XqEz3s5","closest_approach":"2016-05-11","potentially_hazardous":false,"absolute_magnitude_h":19.1,"estimated_diameter":0.650942484,"kilometers_per_second":9.6028856899,"miss_distance":142.0996551514,"orbital_data":{"orbit_id":"112","orbit_determination_date":"2016-04-25 18:17:27","orbit_uncertainty":"0","minimum_orbit_intersection":".0404851","jupiter_tisserand_invariant":"7.026","epoch_osculation":"2457600.5","eccentricity":".3691866081795561","semi_major_axis":".823143005831018","inclination":"17.50837076276745","ascending_node_longitude":"297.8014218914959","orbital_period":"272.7792716523094","perihelion_distance":".5192496314615399","perihelion_argument":"30.56786439020311","aphelion_distance":"1.127036380200496","perihelion_time":"2457568.154980777067","mean_anomaly":"42.68728649989909","mean_motion":"1.319748373178678","equinox":"J2000"}}
]